ALOS-4 (DAICHI-4)       
1 60182U 24123A   24200.91729673  .00004780  00000+0  64495-3 0  9990
2 60182  97.8987 297.1293 0001980  98.9935 261.1501 14.79571674  2639
